# ssystem_minor.ini new in Stellarium 0.16, with additions for SoCiS2016.
# Some clean-up can be done when processing this file for V0.20.
# - NEW split ssystem.ini into ssystem_major.ini (planets and moons) available in program folder from ssystem_minor.ini in user data directory.
# - all occurrences of tex_halo (not used as of 0.15 and earlier; already removed.)
# - all occurrences of texture=nomap.png are redundant (now simply loaded as default)
# - all occurrences of parent=Sun (default when loading). Keep parent=none for sun.
# - lighting=(true|false) will be ignored (processed like previous "true")
# - color=1.0,1.0,1.0 (now loaded as default; This influences the halo color and should always have at least one component 1.0.)
# Default values in the loader, to be removed from ssystem_*.ini: 
# - coord_func=kepler_orbit|comet_orbit|ell_orbit (these are now the same)
# - hidden=false
# - halo=true (changed from false: false only SSobserver, EarthObserver and Sun.)
# - albedo=0.25
# - roughness=0.90
# - texmap=nomap.png
# - parent=Sun
# - outgas_intensity=0.10     (comets only)
# - outgas_falloff=0.10       (comets only)
# - dust_widthfactor=1.50     (comets only)
# - dust_lengthfactor=0.4     (comets only)
# - dust_brightnessfactor=1.5 (comets only)
# Further keys to get rid of:
# - orbit_visualization_period: Objects on Kepler orbits compute that themselves.

# From 0.20.0 on, coord_func defaults to kepler_orbit which replaces both ell_orbit and comet_orbit entries.
# For compatibility reasons, we must keep coord_func=comet_orbit in ssystem_minor.ini
# Source for discovery circumstances:
# - Planet and Satellite Names and Discoverers: https://planetarynames.wr.usgs.gov/Page/Planets
# - Small-Body Database Lookup: https://ssd.jpl.nasa.gov/tools/sbdb_lookup.html#/
# - Discovery Circumstances: Numbered Minor Planets: https://minorplanetcenter.net/iau/lists/NumberedMPs.html

# 23.3: We must find a final unambiguous solution for object names in the program. 
# - Periodic numbered comets must provide perihel year in the name, like "1P/Halley (1986)"
# - All other comets must be named like "iau_designation (discoverernames)"
# - In the file here, comet 'name' entries without / or ( in the string are understood as discoverer names and are attached in brackets to iau_designation to form the name used in the program. 
# It should not make a difference to specify name directly in the final form "iau_designation (discoverernames)", in which case the iau_designation is a redundant piece of information. 
# The name entry for minor planets is optional, names for Minor Planets should be created during loading as:
# "(number) name" with iau_designation used in the extra names in infostring, "(number) iau_designation" or "iau_designation (name)" where a name is given, or just "iau_designation".

[1014291998vf31]
absolute_magnitude             = 17.2
albedo                         = 0.15
iau_designation                = 1998 VF31
minor_planet_number            = 101429
orbit_ArgOfPericenter          = 310.52582
orbit_AscendingNode            = 221.29334
orbit_Eccentricity             = 0.1004626
orbit_Epoch                    = 2459600.5
orbit_Inclination              = 31.29525
orbit_MeanAnomaly              = 13.78565
orbit_MeanMotion               = 0.5237628
orbit_SemiMajorAxis            = 1.5242152
radius                         = 2
slope_parameter                = 0.15
type                           = asteroid

[101955bennu]
absolute_magnitude             = 20.19
albedo                         = 0.046
color_index_bv                 = 0.64
discoverer                     = LINEAR
discovery                      = 1999-09-11
iau_designation                = 1999 RQ36
minor_planet_number            = 101955
name                           = Bennu
orbit_ArgOfPericenter          = 66.37455
orbit_AscendingNode            = 1.97956
orbit_Eccentricity             = 0.2037606
orbit_Epoch                    = 2460600.5
orbit_Inclination              = 6.03298
orbit_MeanAnomaly              = 297.52528
orbit_MeanMotion               = 0.8249353
orbit_SemiMajorAxis            = 1.1259596
radius                         = 0.246
slope_parameter                = -0.08
spec_b                         = B
tex_map                        = bennu.png
type                           = asteroid

[120347salacia]
absolute_magnitude             = 4.1
albedo                         = 0.15
discoverer                     = H.G. Roe, M.E. Brown, K.M. Barkume
discovery                      = 2004-09-22
iau_designation                = 2004 SB60
minor_planet_number            = 120347
name                           = Salacia
orbit_ArgOfPericenter          = 310.87707
orbit_AscendingNode            = 280.23132
orbit_Eccentricity             = 0.1013804
orbit_Epoch                    = 2460600.5
orbit_Inclination              = 23.92713
orbit_MeanAnomaly              = 130.59862
orbit_MeanMotion               = 0.00359025
orbit_SemiMajorAxis            = 42.2396004
radius                         = 496
type                           = cubewano

[1215141999uj7]
absolute_magnitude             = 17
albedo                         = 0.053
discoverer                     = LINEAR
discovery                      = 1999-10-30
iau_designation                = 1999 UJ7
minor_planet_number            = 121514
orbit_ArgOfPericenter          = 48.28693
orbit_AscendingNode            = 347.34929
orbit_Eccentricity             = 0.0392635
orbit_Epoch                    = 2459600.5
orbit_Inclination              = 16.75
orbit_MeanAnomaly              = 301.99933
orbit_MeanMotion               = 0.52358254
orbit_SemiMajorAxis            = 1.524565
radius                         = 2
type                           = asteroid

[125pspacewatch(2024)]
absolute_magnitude             = 13
discoverer                     = T. Gehrels
discovery                      = 1991-09-08
discovery_code                 = 1991x
iau_designation                = P/1991 R2
name                           = 125P/Spacewatch (2024)
orbit_ArgOfPericenter          = 87.1316
orbit_AscendingNode            = 153.1485
orbit_Eccentricity             = 0.512051
orbit_Epoch                    = 2460574.5
orbit_Inclination              = 9.9852
orbit_PericenterDistance       = 1.526636
orbit_TimeAtPericenter         = 2460376.7773
orbit_good                     = 1000
perihelion_code                = 1990 XXIX
ref                            = MPEC 2023-XP6
slope_parameter                = 6
type                           = comet

[12pponsbrooks(2024)]
absolute_magnitude             = 5
discoverer                     = J.L. Pons, W.R. Brooks
discovery                      = 1812-07-21
iau_designation                = P/1812 O1
name                           = 12P/Pons-Brooks (2024)
orbit_ArgOfPericenter          = 198.9889
orbit_AscendingNode            = 255.8558
orbit_Eccentricity             = 0.954568
orbit_Epoch                    = 2460574.5
orbit_Inclination              = 74.1919
orbit_PericenterDistance       = 0.780796
orbit_TimeAtPericenter         = 2460421.6249
orbit_good                     = 1000
perihelion_code                = 1812
ref                            = MPEC 2023-XP6
slope_parameter                = 6
type                           = comet

[130pmcnaughthughes(2024)]
absolute_magnitude             = 10
discoverer                     = R.H. McNaught, S.M. Hughes
discovery                      = 1991-09-30
discovery_code                 = 1991y
iau_designation                = P/1991 S1
name                           = 130P/McNaught-Hughes (2024)
orbit_ArgOfPericenter          = 246.1423
orbit_AscendingNode            = 70.1783
orbit_Eccentricity             = 0.460877
orbit_Epoch                    = 2460574.5
orbit_Inclination              = 6.0636
orbit_PericenterDistance       = 1.823075
orbit_TimeAtPericenter         = 2460415.413
orbit_good                     = 1000
perihelion_code                = 1991 IX
ref                            = MPEC 2023-M14
slope_parameter                = 6
type                           = comet

[133pelstpizarro(2024)]
absolute_magnitude             = 15.4
name                           = 133P/Elst-Pizarro (2024)
orbit_ArgOfPericenter          = 131.9071
orbit_AscendingNode            = 160.1
orbit_Eccentricity             = 0.155858
orbit_Epoch                    = 2460574.5
orbit_Inclination              = 1.3898
orbit_PericenterDistance       = 2.670704
orbit_TimeAtPericenter         = 2460440.7779
orbit_good                     = 1000
ref                            = MPC 94676
slope_parameter                = 2
type                           = comet

[136108haumea]
absolute_magnitude             = 0.2
albedo                         = 0.73
discoverer                     = Sierra Nevada
discovery                      = 2003-03-07
iau_designation                = 2003 EL61
minor_planet_number            = 136108
name                           = Haumea
orbit_ArgOfPericenter          = 240.99593
orbit_AscendingNode            = 121.86591
orbit_Eccentricity             = 0.1983178
orbit_Epoch                    = 2460600.5
orbit_Inclination              = 28.20847
orbit_MeanAnomaly              = 220.88163
orbit_MeanMotion               = 0.00350517
orbit_SemiMajorAxis            = 42.9203644
radius                         = 3130
tex_map                        = haumea.png
type                           = dwarf planet

